NOAA 2 (ITOS-D)
1  6235U 72082A   26177.71378001 -.00000028  00000-0  11726-3 0  9996
2  6235 102.0071 196.3897 0004407 147.5526 325.4725 12.53215231456140
SOLRAD-7B
1  1291U 65016D   26177.50472612  .00000005  00000-0  42721-4 0  9996
2  1291  70.0775 216.4547 0018555 111.5075 248.8011 13.94976602118005
OSCAR-7 (AO-7)
1  7530U 74089B   26177.30866213 -.00000031  00000-0  98450-4 0  9990
2  7530 101.9899 190.6503 0012643 113.2400 258.3057 12.53698198361669
UOSAT-2 (UO-11)
1 14781U 84021B   26177.61814837  .00001135  00000-0  12100-3 0  9994
2 14781  97.8061 143.0876 0008459 143.3075 216.8724 14.90805248258536
FLTSATCOM-7 (USA-20)
1 17181U 86096A   26177.61429397  .00000029  00000-0  00000+0 0  9991
2 17181  12.6935 340.0292 0040661 331.1039  49.1902  0.98927378152065
FLTSATCOM-8 (USA-46)
1 20253U 89077A   26177.40534462 -.00000365  00000-0  00000+0 0  9998
2 20253  12.4189 351.1077 0003930  59.8402 135.2847  1.00272728260654
OSCAR 16 (PACSAT)
1 20439U 90005D   26177.74454082  .00000117  00000-0  58460-4 0  9995
2 20439  98.8517 213.6481 0010218 197.8027 282.1823 14.33939469903301
LUSAT (LO-19)
1 20442U 90005G   26177.32165971  .00000114  00000-0  57434-4 0  9996
2 20442  98.8847 199.3789 0011652 173.9704 186.1622 14.34125703903705
UFO 2 (USA 95)
1 22787U 93056A   26177.67132910  .00000126  00000-0  00000+0 0  9999
2 22787  11.8978   3.5020 0004539   8.7103 172.8825  1.00273180118647
EYESAT-1 (AO-27)
1 22825U 93061C   26177.71928286  .00000080  00000-0  47386-4 0  9994
2 22825  98.6877 245.1292 0009493  75.2353 284.9880 14.30944565708365
ITAMSAT (IO-26) 
1 22826U 93061D   26177.69585115  .00000077  00000-0  45824-4 0  9993
2 22826  98.6824 245.0243 0009877  60.2758 299.9406 14.31371714708677
UFO 3 (USA 104)
1 23132U 94035A   26177.30718315 -.00000102  00000-0  00000+0 0  9996
2 23132  12.3714   5.6535 0001381 277.1034  92.3803  1.00269737131793
RADIO ROSTO (RS-15)
1 23439U 94085A   26177.69440288 -.00000041  00000-0  45074-4 0  9991
2 23439  64.8178 287.8408 0156265   2.1190 358.0364 11.27583424296971
UFO 4 (USA 108)
1 23467U 95003A   26177.44934199 -.00000020  00000-0  00000+0 0  9997
2 23467   9.6842  13.1531 0002952  79.2927 156.0877  1.00273466115045
UFO 7 (USA 127)
1 23967U 96042A   26177.44243595 -.00000293  00000-0  00000+0 0  9991
2 23967  11.1253  17.0315 0006138 110.6534 259.4434  1.00210521109583
JAS-2 (FO-29)
1 24278U 96046B   26177.47891755 -.00000015  00000-0  18217-4 0  9997
2 24278  98.5232  25.0778 0350900  72.3924 291.5216 13.53274769474421
UFO 8 (USA 138)
1 25258U 98016A   26177.46957638 -.00000187  00000-0  00000+0 0  9993
2 25258  11.1425  22.7049 0003362 253.7659 320.4232  1.00269324103954
TECHSAT-1B (GO-32)
1 25397U 98043D   26177.47694676  .00000058  00000-0  45347-4 0  9992
2 25397  99.0071 170.4701 0001524 145.3708 214.7569 14.24430067452651
ISS (ZARYA)
1 25544U 98067A   26177.47752734  .00007960  00000-0  15019-3 0  9993
2 25544  51.6324 254.1054 0004309 234.2414 125.8174 15.49438531573196
UFO 10 (USA 146)
1 25967U 99063A   26176.93030833 -.00000187  00000-0  00000-0 0  9994
2 25967   9.8408  27.1653 0001599  63.7985 135.0117  1.00269320 97430
PCSAT (NO-44)
1 26931U 01043C   26177.51858728  .00000083  00000-0  61958-4 0  9990
2 26931  67.0492 220.1368 0006039 265.1610  94.8803 14.31958870291787
PROBA-1
1 26958U 01049B   26177.56206497  .00002846  00000-0  18520-3 0  9995
2 26958  97.9604 186.4214 0056433  91.1770 269.5923 15.07535853345032
SAUDISAT-1C (SO-50)
1 27607U 02058C   26177.25860940  .00000937  00000-0  12777-3 0  9990
2 27607  64.5520 100.9188 0075048 260.7782  98.4830 14.83064844265804
CUTE-1 (CO-55)
1 27844U 03031E   26176.95866144  .00000278  00000-0  13913-3 0  9994
2 27844  98.6736 185.4073 0010067 153.3060 206.8639 14.24340671192925
CUBESAT XI-IV (CO-57)
1 27848U 03031J   26176.95152158  .00000236  00000-0  12262-3 0  9991
2 27848  98.6767 185.1059 0009591 171.2746 188.8601 14.23625133192627
MOZHAYETS-4 (RS-22)
1 27939U 03042A   26177.65355623  .00001107  00000-0  17863-3 0  9994
2 27939  98.3473   2.2801 0010047 235.5664 197.8593 14.73483376216942
UFO 11 (USA 174)
1 28117U 03057A   26177.68058024 -.00000102  00000-0  00000+0 0  9993
2 28117   8.9522  33.7799 0002348  71.1193 130.5155  1.00271668 82544
CUBESAT XI-V (CO-58)
1 28895U 05043F   26177.71119501  .00001367  00000-0  22252-3 0  9995
2 28895  98.2993 333.5333 0014302 170.4305 189.7177 14.72655432103156
CAPE-1
1 31130U 07012P   26177.66462450  .00001535  00000-0  28234-3 0  9990
2 31130  98.4465 152.4128 0084453  42.3420 318.4259 14.64901133 19743
CUTE-1.7+APD II (CO-65)
1 32785U 08021C   26177.66180106  .00004656  00000-0  29417-3 0  9994
2 32785  97.8273 159.2777 0008803   9.9021 350.2379 15.09537507986623
SEEDS-II (CO-66)
1 32791U 08021J   26177.47033514  .00018788  00000-0  59022-3 0  9996
2 32791  97.7516 175.8130 0000491 216.1627 143.9581 15.33053587988717
YUBILEINY (RS-30)
1 32953U 08025A   26177.75582913  .00000045  00000-0  25141-3 0  9995
2 32953  82.5046 349.4872 0018575 291.9023  68.0082 12.43179936820883
KKS-1 (KISEKI)
1 33499U 09002H   26177.76926486  .00001239  00000-0  15879-3 0  9998
2 33499  98.1187 100.3635 0006389 257.8802 102.1695 14.83146255937619
SWISSCUBE
1 35932U 09051B   26177.47338387  .00000909  00000-0  18915-3 0  9998
2 35932  98.4029  85.5233 0006640 172.3713 187.7590 14.62497638890512
BEESAT
1 35933U 09051C   26177.69301353  .00000752  00000-0  16076-3 0  9998
2 35933  98.3957  85.3622 0004848 183.3217 176.7952 14.61734342890572
ITUPSAT-1
1 35935U 09051E   26177.69222980  .00000700  00000-0  15443-3 0  9998
2 35935  98.4042  84.5432 0006751 199.9772 160.1164 14.60453570890127
PROBA-2
1 36037U 09059B   26177.45639152  .00000195  00000-0  56041-4 0  9995
2 36037  98.2451   0.6807 0011996 250.3098 109.6805 14.54866114882876
XIWANG-1 (HOPE-1)
1 36122U 09072B   26177.74377061  .00000075  00000-0  31166-3 0  9992
2 36122 100.4023 131.4231 0007068 207.8505 152.2230 13.16440508794264
EWS-G2 (GOES-15)
1 36411U 10008A   26177.67824023  .00000031  00000-0  00000+0 0  9992
2 36411   1.3034  82.7227 0005325  43.0608  96.7372  1.00268061 59734
TISAT-1
1 36799U 10035E   26177.58870590  .00020050  00000-0  64968-3 0  9991
2 36799  98.0702 124.9738 0002718 151.9791 208.1596 15.32050989869148
HORYU-2
1 38340U 12025D   26177.63406821  .00003411  00000-0  34985-3 0  9992
2 38340  98.2181 310.9572 0008916 145.3696 214.8103 14.91120384750132
AAUSAT-3
1 39087U 13009B   26177.49196894  .00000604  00000-0  20559-3 0  9997
2 39087  98.3702   1.0740 0011397 177.7846 182.3395 14.39950289698511
STRAND-1
1 39090U 13009E   26177.73342244  .00000270  00000-0  10506-3 0  9990
2 39090  98.3924 357.7329 0008261 194.5261 165.5690 14.37168557698438
CUBEBUG-1 (CAPITAN BETO)
1 39153U 13018D   26177.39034071  .00004110  00000-0  35888-3 0  9995
2 39153  98.1668 337.7408 0013101 116.1423 244.1147 14.97351483712443
PROBA-V
1 39159U 13021A   26177.67787602  .00000082  00000-0  53805-4 0  9995
2 39159  98.3589 155.8162 0005398 101.7097 258.4688 14.23599058682462
ZACUBE-1 (TSHEPISOSAT)
1 39417U 13066B   26177.47231079  .00003406  00000-0  26520-3 0  9997
2 39417  97.8048 139.8569 0042084 216.0502 143.7882 15.01236337682120
TRITON-1
1 39427U 13066M   26177.74996696  .00001398  00000-0  17238-3 0  9995
2 39427  97.8242  87.3394 0089118 202.2821 157.4510 14.81733254675501
DELFI-N3XT
1 39428U 13066N   26177.74838061  .00005087  00000-0  44373-3 0  9996
2 39428  97.8344  98.0513 0074335 173.5030 186.7172 14.95171954676052
GOMX-1
1 39430U 13066Q   26177.78699068  .00001913  00000-0  29101-3 0  9991
2 39430  97.6486  17.6438 0129859  47.0653 314.1362 14.69491428671326
VELOX-PII
1 39438U 13066Y   26177.61792719  .00003578  00000-0  33988-3 0  9995
2 39438  97.8744 128.9930 0051388 313.0819  46.6105 14.93165384679244
CUBEBUG-2 (LO-74)
1 39440U 13066AA  26177.77591205  .00004220  00000-0  39049-3 0  9991
2 39440  97.8903 126.7948 0057450 357.3533   2.7374 14.93836496678428
FUNCUBE-1 (AO-73)
1 39444U 13066AE  26177.66821197  .00007529  00000-0  46531-3 0  9998
2 39444  97.8272 149.3122 0036613 168.7354 191.4703 15.09595526681092
UWE-3
1 39446U 13066AG  26176.83787144  .00004431  00000-0  38106-3 0  9999
2 39446  97.8708 132.9703 0046808 291.8607  67.7640 14.97092153678878
UNISAT-6
1 40012U 14033C   26177.68044105  .00002478  00000-0  26905-3 0  9995
2 40012  97.7883 330.2257 0045701  38.7415 321.7064 14.88289087647575
DUCHIFAT-1
1 40021U 14033M   26177.60974735  .00111371  00000-0  10572-2 0  9993
2 40021  98.0448 238.1065 0001317 100.0937 260.0470 15.66536146657223
FUNCUBE-3 (EO-79)
1 40025U 14033R   26177.24478524  .00009878  00000-0  48340-3 0  9995
2 40025  98.0964 189.0261 0008742 183.1826 176.9352 15.18390211654409
SMAP
1 40376U 15003A   26177.72093409  .00000395  00000-0  85533-4 0  9991
2 40376  98.1276 184.6804 0001431  98.3401 261.7964 14.63374195609014
LILACSAT-2
1 40908U 15049K   26177.75265995  .00017374  00000-0  29262-3 0  9997
2 40908  97.4638 214.9588 0006419 202.9560 157.1406 15.51748827597239
LAPAN-A2 (IO-86)
1 40931U          25360.30710720  .00000000  00000-0  12800-3 0    00
2 40931   6.0006 332.5373 0012733 338.8432   8.1437 14.79075515    01
LQSAT
1 40958U 15057A   26177.75891436  .00000933  00000-0  13970-3 0  9998
2 40958  97.6682 170.6598 0015516 239.3621 120.6060 14.76795188576724
PRATHAM
1 41783U 16059A   26177.72323505  .00000560  00000-0  10712-3 0  9999
2 41783  97.8323 174.1621 0031024 185.5876 174.4987 14.67204543520912
ALSAT-1N
1 41789U 16059G   26177.71774565  .00000759  00000-0  13584-3 0  9990
2 41789  97.8008 180.6440 0026278 154.3200 205.9317 14.69320195521405
CAS-2T & KS-1Q
1 41847U 16066G   26177.72919289  .00001560  00000-0  22505-3 0  9992
2 41847  98.3821 253.3565 0342905 100.6280 263.3719 14.44723586506170
GOES-16
1 41866U 16071A   26177.57357477 -.00000080  00000-0  00000+0 0  9996
2 41866   0.3649  85.5362 0000563   6.0774 284.8738  1.00272069 35191
